STARLINK-36930          
1 68018U 26040D   26078.66668981 -.01926008  00000+0 -11976-1 0  9990
2 68018  97.2777  27.5959 0001484  93.9192 328.7949 15.79986778  4037
STARLINK-36921          
1 68019U 26040E   26078.25002315  .00074129  00000+0  38458-3 0  9990
2 68019  97.2767  27.1623 0000519 107.4480 122.9878 15.80810169  3968
STARLINK-36928          
1 68020U 26040F   26078.66668981 -.01941661  00000+0 -11719-1 0  9990
2 68020  97.2795  27.6009 0001347  77.7744 358.0416 15.80661267  4038
STARLINK-36858          
1 68021U 26040G   26078.84703104 -.00928066  00000+0 -42103-2 0  9993
2 68021  97.2785  27.9400 0000243 127.3465 232.7828 15.86019763  2961
STARLINK-36916          
1 68022U 26040H   26078.25002315 -.00351725  00000+0 -19001-2 0  9998
2 68022  97.2751  27.1647 0000749 136.2779 102.7168 15.80935505  3967
STARLINK-36871          
1 68023U 26040J   26078.66668981 -.01919566  00000+0 -11922-1 0  9998
2 68023  97.2773  27.6078 0001371  86.8292   5.8092 15.80001786  4030
STARLINK-36891          
1 68024U 26040K   26078.66668981 -.01920949  00000+0 -11962-1 0  9990
2 68024  97.2773  27.6100 0001535  82.6683  14.2038 15.79945156  4037
STARLINK-36378          
1 68025U 26040L   26078.66668981 -.01899774  00000+0 -11884-1 0  9995
2 68025  97.2794  27.6161 0001541  82.6965  22.6461 15.79810818  3980
STARLINK-36884          
1 68026U 26040M   26078.66668981 -.01941289  00000+0 -11905-1 0  9999
2 68026  97.2780  27.6126 0001443  63.2149  38.1453 15.80315252  4031
STARLINK-36940          
1 68027U 26040N   26078.66668981 -.01898581  00000+0 -12248-1 0  9997
2 68027  97.2852  27.6436 0001934  93.8562  61.9851 15.79128766  4125
STARLINK-36253          
1 68028U 26040P   26078.66668981 -.01878732  00000+0 -17623-1 0  9996
2 68028  97.2848  27.3833 0001823  96.9801 178.6407 15.70532022  4135
STARLINK-36944          
1 68029U 26040Q   26078.66668981 -.01813678  00000+0 -11344-1 0  9999
2 68029  97.2779  27.6152 0001669  74.3134  35.3231 15.79665290  4039
